[{"OBJECT_NAME":"STARLINK-30845","OBJECT_ID":"2023-170B","EPOCH":"2026-03-09T10:18:34.171488","MEAN_MOTION":15.03060829,"ECCENTRICITY":9.377e-5,"INCLINATION":43.0009,"RA_OF_ASC_NODE":197.0622,"ARG_OF_PERICENTER":266.2361,"MEAN_ANOMALY":93.8374,"EPHEMERIS_TYPE":0,"CLASSIFICATION_TYPE":"U","NORAD_CAT_ID":58207,"ELEMENT_SET_NO":999,"REV_AT_EPOCH":13024,"BSTAR":0.00033221826,"MEAN_MOTION_DOT":4.349e-5,"MEAN_MOTION_DDOT":0},{"OBJECT_NAME":"LEMUR-2-SQUIRRELCOMM","OBJECT_ID":"2024-149DQ","EPOCH":"2026-03-09T21:26:31.466400","MEAN_MOTION":15.05887962,"ECCENTRICITY":0.00061012,"INCLINATION":97.6754,"RA_OF_ASC_NODE":150.1976,"ARG_OF_PERICENTER":42.3481,"MEAN_ANOMALY":317.8216,"EPHEMERIS_TYPE":0,"CLASSIFICATION_TYPE":"U","NORAD_CAT_ID":60578,"ELEMENT_SET_NO":999,"REV_AT_EPOCH":8545,"BSTAR":0.00060830109,"MEAN_MOTION_DOT":8.786e-5,"MEAN_MOTION_DDOT":0}]
